GLOBALSTAR M075         
1 37192U 10054E   24159.64607205 -.00000060  00000+0  24524-3 0  9999
2 37192  51.9940 241.9318 0000580 143.7146  21.3870 12.62275295628704
GLOBALSTAR M073         
1 37193U 10054F   24159.92941727 -.00000107  00000+0 -20019-4 0  9990
2 37193  52.0032 154.6032 0000117 316.9013  54.7679 12.62266201630577
GLOBALSTAR M083         
1 37739U 11033A   24159.58143823 -.00000124  00000+0 -11381-3 0  9997
2 37739  51.9854 104.9026 0000546  66.5862 104.7214 12.62270104599549
GLOBALSTAR M088         
1 37740U 11033B   24159.83708464 -.00000077  00000+0  15180-3 0  9992
2 37740  51.9755   9.9318 0000946  95.1293 278.6116 12.62263996595122
GLOBALSTAR M091         
1 37741U 11033C   24159.77117632 -.00000086  00000+0  10035-3 0  9991
2 37741  52.0013 333.0202 0001155 109.9615 262.8935 12.62263469595905
GLOBALSTAR M085         
1 37742U 11033D   24159.59934137 -.00000080  00000+0  13529-3 0  9994
2 37742  51.9874 284.9115 0000974 127.0113 245.9954 12.62271733596398
GLOBALSTAR M081         
1 37743U 11033E   24159.62600479 -.00000088  00000+0  88811-4 0  9993
2 37743  51.9968 287.3875 0000919 139.5636 233.6787 12.62265646596923
GLOBALSTAR M089         
1 37744U 11033F   24159.93814101 -.00000058  00000+0  25705-3 0  9996
2 37744  51.9924 240.7378 0000297 187.7013 343.2799 12.62264694597429
